[{"OBJECT_NAME":"HULIANWANG DIGUI-49","OBJECT_ID":"2025-168A","EPOCH":"2026-03-04T19:29:23.047584","MEAN_MOTION":13.29338586,"ECCENTRICITY":0.0007416,"INCLINATION":50.0049,"RA_OF_ASC_NODE":340.3187,"ARG_OF_PERICENTER":151.2867,"MEAN_ANOMALY":208.8414,"EPHEMERIS_TYPE":0,"CLASSIFICATION_TYPE":"U","NORAD_CAT_ID":65106,"ELEMENT_SET_NO":999,"REV_AT_EPOCH":2880,"BSTAR":0.00016195,"MEAN_MOTION_DOT":-4.9e-7,"MEAN_MOTION_DDOT":0},{"OBJECT_NAME":"HULIANWANG DIGUI-50","OBJECT_ID":"2025-168B","EPOCH":"2026-03-04T19:17:17.128608","MEAN_MOTION":13.29339281,"ECCENTRICITY":0.000837,"INCLINATION":50.002,"RA_OF_ASC_NODE":340.2182,"ARG_OF_PERICENTER":137.2092,"MEAN_ANOMALY":222.9433,"EPHEMERIS_TYPE":0,"CLASSIFICATION_TYPE":"U","NORAD_CAT_ID":65107,"ELEMENT_SET_NO":999,"REV_AT_EPOCH":2880,"BSTAR":0.00018505,"MEAN_MOTION_DOT":-3.8e-7,"MEAN_MOTION_DDOT":0},{"OBJECT_NAME":"HULIANWANG DIGUI-51","OBJECT_ID":"2025-168C","EPOCH":"2026-03-04T19:05:14.371872","MEAN_MOTION":13.29339599,"ECCENTRICITY":0.0009722,"INCLINATION":50.0056,"RA_OF_ASC_NODE":340.2442,"ARG_OF_PERICENTER":137.1564,"MEAN_ANOMALY":223.0067,"EPHEMERIS_TYPE":0,"CLASSIFICATION_TYPE":"U","NORAD_CAT_ID":65108,"ELEMENT_SET_NO":999,"REV_AT_EPOCH":2880,"BSTAR":0.00018737,"MEAN_MOTION_DOT":-3.7e-7,"MEAN_MOTION_DDOT":0},{"OBJECT_NAME":"HULIANWANG DIGUI-52","OBJECT_ID":"2025-168D","EPOCH":"2026-03-04T18:53:22.436736","MEAN_MOTION":13.29338245,"ECCENTRICITY":0.000961,"INCLINATION":50.005,"RA_OF_ASC_NODE":340.1836,"ARG_OF_PERICENTER":150.0638,"MEAN_ANOMALY":210.0786,"EPHEMERIS_TYPE":0,"CLASSIFICATION_TYPE":"U","NORAD_CAT_ID":65109,"ELEMENT_SET_NO":999,"REV_AT_EPOCH":2880,"BSTAR":0.00018269,"MEAN_MOTION_DOT":-3.9e-7,"MEAN_MOTION_DDOT":0},{"OBJECT_NAME":"HULIANWANG DIGUI-53","OBJECT_ID":"2025-168E","EPOCH":"2026-03-04T18:41:20.518944","MEAN_MOTION":13.29338132,"ECCENTRICITY":0.0008404,"INCLINATION":50.0058,"RA_OF_ASC_NODE":340.162,"ARG_OF_PERICENTER":139.7991,"MEAN_ANOMALY":220.3504,"EPHEMERIS_TYPE":0,"CLASSIFICATION_TYPE":"U","NORAD_CAT_ID":65110,"ELEMENT_SET_NO":999,"REV_AT_EPOCH":2880,"BSTAR":0.00017334,"MEAN_MOTION_DOT":-4.4e-7,"MEAN_MOTION_DDOT":0},{"OBJECT_NAME":"HULIANWANG DIGUI-54","OBJECT_ID":"2025-168F","EPOCH":"2026-03-04T19:53:46.500288","MEAN_MOTION":13.29335278,"ECCENTRICITY":0.0010003,"INCLINATION":50.0008,"RA_OF_ASC_NODE":339.6724,"ARG_OF_PERICENTER":145.2182,"MEAN_ANOMALY":214.9345,"EPHEMERIS_TYPE":0,"CLASSIFICATION_TYPE":"U","NORAD_CAT_ID":65111,"ELEMENT_SET_NO":999,"REV_AT_EPOCH":2881,"BSTAR":0.00016878,"MEAN_MOTION_DOT":-4.6e-7,"MEAN_MOTION_DDOT":0},{"OBJECT_NAME":"HULIANWANG DIGUI-55","OBJECT_ID":"2025-168G","EPOCH":"2026-03-04T18:29:12.420096","MEAN_MOTION":13.29338815,"ECCENTRICITY":0.0011281,"INCLINATION":50.0014,"RA_OF_ASC_NODE":340.0357,"ARG_OF_PERICENTER":140.8719,"MEAN_ANOMALY":219.2971,"EPHEMERIS_TYPE":0,"CLASSIFICATION_TYPE":"U","NORAD_CAT_ID":65112,"ELEMENT_SET_NO":999,"REV_AT_EPOCH":2880,"BSTAR":0.00015935,"MEAN_MOTION_DOT":-5.0e-7,"MEAN_MOTION_DDOT":0},{"OBJECT_NAME":"HULIANWANG DIGUI-56","OBJECT_ID":"2025-168H","EPOCH":"2026-03-04T20:05:27.770208","MEAN_MOTION":13.29338218,"ECCENTRICITY":0.0010992,"INCLINATION":50.0006,"RA_OF_ASC_NODE":339.7071,"ARG_OF_PERICENTER":163.0879,"MEAN_ANOMALY":197.0361,"EPHEMERIS_TYPE":0,"CLASSIFICATION_TYPE":"U","NORAD_CAT_ID":65113,"ELEMENT_SET_NO":999,"REV_AT_EPOCH":2881,"BSTAR":0.00017361,"MEAN_MOTION_DOT":-4.3e-7,"MEAN_MOTION_DDOT":0},{"OBJECT_NAME":"HULIANWANG DIGUI-57","OBJECT_ID":"2025-168J","EPOCH":"2026-03-04T19:41:46.853952","MEAN_MOTION":13.29335137,"ECCENTRICITY":0.0008745,"INCLINATION":50.0034,"RA_OF_ASC_NODE":339.6765,"ARG_OF_PERICENTER":153.5167,"MEAN_ANOMALY":206.6153,"EPHEMERIS_TYPE":0,"CLASSIFICATION_TYPE":"U","NORAD_CAT_ID":65114,"ELEMENT_SET_NO":999,"REV_AT_EPOCH":2882,"BSTAR":0.00019833,"MEAN_MOTION_DOT":-3.2e-7,"MEAN_MOTION_DDOT":0},{"OBJECT_NAME":"HULIANWANG DIGUI-58","OBJECT_ID":"2025-174A","EPOCH":"2026-03-04T20:36:44.434368","MEAN_MOTION":13.24420997,"ECCENTRICITY":0.0001254,"INCLINATION":86.4928,"RA_OF_ASC_NODE":287.2646,"ARG_OF_PERICENTER":87.1299,"MEAN_ANOMALY":272.9979,"EPHEMERIS_TYPE":0,"CLASSIFICATION_TYPE":"U","NORAD_CAT_ID":65164,"ELEMENT_SET_NO":999,"REV_AT_EPOCH":2698,"BSTAR":0.00012255,"MEAN_MOTION_DOT":6.7e-7,"MEAN_MOTION_DDOT":0},{"OBJECT_NAME":"HULIANWANG DIGUI-59","OBJECT_ID":"2025-174B","EPOCH":"2026-03-04T18:58:49.520352","MEAN_MOTION":13.244212,"ECCENTRICITY":0.0001246,"INCLINATION":86.4888,"RA_OF_ASC_NODE":287.2173,"ARG_OF_PERICENTER":86.3177,"MEAN_ANOMALY":273.8099,"EPHEMERIS_TYPE":0,"CLASSIFICATION_TYPE":"U","NORAD_CAT_ID":65165,"ELEMENT_SET_NO":999,"REV_AT_EPOCH":2697,"BSTAR":0.00017866,"MEAN_MOTION_DOT":9.1e-7,"MEAN_MOTION_DDOT":0},{"OBJECT_NAME":"HULIANWANG DIGUI-60","OBJECT_ID":"2025-174C","EPOCH":"2026-03-04T19:09:39.922272","MEAN_MOTION":13.24421449,"ECCENTRICITY":0.0001216,"INCLINATION":86.492,"RA_OF_ASC_NODE":287.284,"ARG_OF_PERICENTER":88.4127,"MEAN_ANOMALY":271.7146,"EPHEMERIS_TYPE":0,"CLASSIFICATION_TYPE":"U","NORAD_CAT_ID":65166,"ELEMENT_SET_NO":999,"REV_AT_EPOCH":2697,"BSTAR":0.00018821,"MEAN_MOTION_DOT":9.5e-7,"MEAN_MOTION_DDOT":0},{"OBJECT_NAME":"HULIANWANG DIGUI-61","OBJECT_ID":"2025-174D","EPOCH":"2026-03-04T19:20:37.530816","MEAN_MOTION":13.24419965,"ECCENTRICITY":0.0001168,"INCLINATION":86.4929,"RA_OF_ASC_NODE":287.3041,"ARG_OF_PERICENTER":87.3676,"MEAN_ANOMALY":272.7591,"EPHEMERIS_TYPE":0,"CLASSIFICATION_TYPE":"U","NORAD_CAT_ID":65167,"ELEMENT_SET_NO":999,"REV_AT_EPOCH":2697,"BSTAR":0.00015239,"MEAN_MOTION_DOT":8.0e-7,"MEAN_MOTION_DDOT":0},{"OBJECT_NAME":"HULIANWANG DIGUI-62","OBJECT_ID":"2025-174E","EPOCH":"2026-03-04T19:31:26.292000","MEAN_MOTION":13.24421303,"ECCENTRICITY":0.0001168,"INCLINATION":86.4871,"RA_OF_ASC_NODE":287.1911,"ARG_OF_PERICENTER":89.5905,"MEAN_ANOMALY":270.5363,"EPHEMERIS_TYPE":0,"CLASSIFICATION_TYPE":"U","NORAD_CAT_ID":65168,"ELEMENT_SET_NO":999,"REV_AT_EPOCH":2697,"BSTAR":0.00012231,"MEAN_MOTION_DOT":6.7e-7,"MEAN_MOTION_DDOT":0},{"OBJECT_NAME":"HULIANWANG DIGUI-63","OBJECT_ID":"2025-174F","EPOCH":"2026-03-04T19:42:17.748000","MEAN_MOTION":13.24421658,"ECCENTRICITY":0.0001192,"INCLINATION":86.4923,"RA_OF_ASC_NODE":287.2977,"ARG_OF_PERICENTER":87.03,"MEAN_ANOMALY":273.0971,"EPHEMERIS_TYPE":0,"CLASSIFICATION_TYPE":"U","NORAD_CAT_ID":65169,"ELEMENT_SET_NO":999,"REV_AT_EPOCH":2697,"BSTAR":7.4794e-5,"MEAN_MOTION_DOT":4.7e-7,"MEAN_MOTION_DDOT":0},{"OBJECT_NAME":"HULIANWANG DIGUI-64","OBJECT_ID":"2025-174G","EPOCH":"2026-03-04T19:53:10.647744","MEAN_MOTION":13.24421737,"ECCENTRICITY":0.0001178,"INCLINATION":86.4882,"RA_OF_ASC_NODE":287.2208,"ARG_OF_PERICENTER":89.9277,"MEAN_ANOMALY":270.1992,"EPHEMERIS_TYPE":0,"CLASSIFICATION_TYPE":"U","NORAD_CAT_ID":65170,"ELEMENT_SET_NO":999,"REV_AT_EPOCH":2697,"BSTAR":9.0902e-5,"MEAN_MOTION_DOT":5.4e-7,"MEAN_MOTION_DDOT":0}]
