HULIANWANG DIGUI-49     
1 65106U 25168A   26063.81207231 -.00000049  00000+0  16195-3 0  9999
2 65106  50.0049 340.3187 0007416 151.2867 208.8414 13.29338586 28805
HULIANWANG DIGUI-50     
1 65107U 25168B   26063.80367047 -.00000038  00000+0  18505-3 0  9996
2 65107  50.0020 340.2182 0008370 137.2092 222.9433 13.29339281 28804
HULIANWANG DIGUI-51     
1 65108U 25168C   26063.79530523 -.00000037  00000+0  18737-3 0  9992
2 65108  50.0056 340.2442 0009722 137.1564 223.0067 13.29339599 28805
HULIANWANG DIGUI-52     
1 65109U 25168D   26063.78706524 -.00000039  00000+0  18269-3 0  9990
2 65109  50.0050 340.1836 0009610 150.0638 210.0786 13.29338245 28809
HULIANWANG DIGUI-53     
1 65110U 25168E   26063.77870971 -.00000044  00000+0  17334-3 0  9997
2 65110  50.0058 340.1620 0008404 139.7991 220.3504 13.29338132 28803
HULIANWANG DIGUI-54     
1 65111U 25168F   26063.82901042 -.00000046  00000+0  16878-3 0  9992
2 65111  50.0008 339.6724 0010003 145.2182 214.9345 13.29335278 28810
HULIANWANG DIGUI-55     
1 65112U 25168G   26063.77028264 -.00000050  00000+0  15935-3 0  9991
2 65112  50.0014 340.0357 0011281 140.8719 219.2971 13.29338815 28804
HULIANWANG DIGUI-56     
1 65113U 25168H   26063.83712697 -.00000043  00000+0  17361-3 0  9996
2 65113  50.0006 339.7071 0010992 163.0879 197.0361 13.29338218 28810
HULIANWANG DIGUI-57     
1 65114U 25168J   26063.82068118 -.00000032  00000+0  19833-3 0  9992
2 65114  50.0034 339.6765 0008745 153.5167 206.6153 13.29335137 28822
HULIANWANG DIGUI-58     
1 65164U 25174A   26063.85884762  .00000067  00000+0  12255-3 0  9996
2 65164  86.4928 287.2646 0001254  87.1299 272.9979 13.24420997 26985
HULIANWANG DIGUI-59     
1 65165U 25174B   26063.79085093  .00000091  00000+0  17866-3 0  9990
2 65165  86.4888 287.2173 0001246  86.3177 273.8099 13.24421200 26973
HULIANWANG DIGUI-60     
1 65166U 25174C   26063.79837873  .00000095  00000+0  18821-3 0  9998
2 65166  86.4920 287.2840 0001216  88.4127 271.7146 13.24421449 26972
HULIANWANG DIGUI-61     
1 65167U 25174D   26063.80598994  .00000080  00000+0  15239-3 0  9993
2 65167  86.4929 287.3041 0001168  87.3676 272.7591 13.24419965 26974
HULIANWANG DIGUI-62     
1 65168U 25174E   26063.81349875  .00000067  00000+0  12231-3 0  9991
2 65168  86.4871 287.1911 0001168  89.5905 270.5363 13.24421303 26976
HULIANWANG DIGUI-63     
1 65169U 25174F   26063.82103875  .00000047  00000+0  74794-4 0  9992
2 65169  86.4923 287.2977 0001192  87.0300 273.0971 13.24421658 26973
HULIANWANG DIGUI-64     
1 65170U 25174G   26063.82859546  .00000054  00000+0  90902-4 0  9994
2 65170  86.4882 287.2208 0001178  89.9277 270.1992 13.24421737 26973
